BEESAT-4                
1 41619U 16040W   21188.85831517  .00002441  00000-0  98689-4 0  9995
2 41619  97.2684 244.3770 0008871 256.3749 103.6501 15.25635528268123
CAS-2T & KS-1Q          
1 41847U 16066G   21188.72106729  .00000198  00000-0  39578-4 0  9991
2 41847  98.6000 247.9363 0365736 159.7357 201.8787 14.38206251244791
NAYIF-1 (EO-88)         
1 42017U 17008BX  21189.12059435  .00002805  00000-0  10433-3 0  9999
2 42017  97.3152 256.3506 0007028  48.2940 311.8900 15.28313076244417
ZHUHAI-1 02 (CAS-4B)    
1 42759U 17034B   21189.52144001  .00000585  00000-0  48474-4 0  9999
2 42759  43.0188  65.2536 0010072 296.2607 132.4334 15.10257057224339
ZHUHAI-1 01 (CAS-4A)    
1 42761U 17034D   21189.39735331  .00000719  00000-0  56378-4 0  9990
2 42761  43.0181  64.9754 0010465 295.9022 233.0772 15.10345318224316
MAX VALIER SAT          
1 42778U 17036P   21188.85989589  .00001675  00000-0  72495-4 0  9996
2 42778  97.2535 236.8009 0013660 103.0868 257.1895 15.23688754224397
RADFXSAT (FOX-1B)       
1 43017U 17073E   21189.29799243  .00000443  00000-0  39984-4 0  9997
2 43017  97.7055  92.4608 0253568 232.2013 125.5998 14.79593250196203
FOX-1D (AO-92)          
1 43137U 18004AC  21189.19452893  .00001849  00000-0  76116-4 0  9990
2 43137  97.4062 263.0143 0010023 131.5036 228.7063 15.25345160193814
DIWATA-2B               
1 43678U 18084H   21189.44838704  .00000449  00000-0  50340-4 0  9991
2 43678  97.9258 314.8362 0009616 350.9126   9.1938 14.91764617146563
ES'HAIL 2               
1 43700U 18090A   21188.87722583  .00000155  00000-0  00000-0 0  9995
2 43700   0.0177  42.0562 0001198  97.2580 128.3270  1.00272670  9579
FOX-1CLIFF (AO-95)      
1 43770U 18099N   21189.46154955  .00000594  00000-0  58921-4 0  9995
2 43770  97.6640 259.1841 0014089 353.6624   6.4416 14.95349690141597
ITASAT 1                
1 43786U 18099AE  21189.44355346 -.00000059  00000-0 -17015-6 0  9996
2 43786  97.6662 259.8594 0014707 346.1997  13.8820 14.95641453141624
JY1SAT (JO-97)          
1 43803U 18099AX  21188.73501985  .00000781  00000-0  74825-4 0  9999
2 43803  97.6622 258.9154 0014481 348.8123  11.2774 14.95891583141521
UWE-4                   
1 43880U 18111E   21188.70505371  .00000566  00000-0  54307-4 0  9993
2 43880  97.6865  96.0925 0013533  42.0622 318.1636 14.96902211138115
NEXUS (FO-99)           
1 43937U 19003F   21189.04570086  .00002099  00000-0  84223-4 0  9993
2 43937  97.1745 231.4020 0021438 301.8570  58.0582 15.25854231137404
PSAT2 (NO-104)          
1 44354U 19036R   21189.13874758  .00023387  00000-0  30698-3 0  9995
2 44354  28.5287 349.0775 0322649 140.3069 222.1609 15.14280499112108
BRICSAT2 (NO-103)       
1 44355U 19036S   21188.61938107  .00046441 -58122-5  48099-3 0  9991
2 44355  28.5279 304.1209 0256369 213.6025 144.8073 15.31502681112525
JAISAT-1                
1 44419U 19038F   21189.12937053  .00001257  00000-0  73046-4 0  9993
2 44419  97.5895 153.7559 0019457 238.9395 120.9926 15.13833513110922
DUCHIFAT-3              
1 44854U 19089C   21189.43556007  .00000628  00000-0  56545-4 0  9998
2 44854  36.9696 336.5481 0009849 309.1654  50.8223 14.99531621 86256
CAS-6 (TO-108)          
1 44881U 19093C   21189.40536741  .00000066  00000-0  15271-4 0  9990
2 44881  97.9233 268.0050 0013975 221.3686 138.6477 14.81461302 83832
RS-44 & BREEZE-KM R/B   
1 44909U 19096E   21188.87677211  .00000013  00000-0  46362-5 0  9990
2 44909  82.5218  99.2456 0218397  45.5474 316.3262 12.79710668 71433
ORBITAL FACTORY 2 (OF-2)
1 45113U 19071C   21188.57651582  .00003980  00000-0  12274-3 0  9990
2 45113  51.6429 299.9333 0011913   8.3341 351.7838 15.35929630 80269
HUSKYSAT-1 (HO-107)     
1 45119U 19071J   21189.36840651  .00003767  00000-0  11671-3 0  9994
2 45119  51.6422 295.4655 0011326   7.9953 352.1208 15.35951488 80383
BY70-2                  
1 45857U 20042B   21189.57767264  .00001427  00000-0  20910-3 0  9991
2 45857  97.9831 265.1053 0012469 139.9663 220.2474 14.77093757 54661
SALSAT                  
1 46495U 20068K   21188.89320874  .00000772  00000-0  61047-4 0  9993
2 46495  97.6939 126.2666 0017100   8.5982 351.5532 15.03489527 42401
BY70-3                  
1 46839U 20079N   21189.46146716  .00003822  00000-0  11902-3 0  9995
2 46839  97.2399 262.9004 0008689 124.6419 359.2114 15.33841114 37424
RADFXSAT-2 (AO-109)     
1 47311U 21002C   21189.05587259  .00000957  00000-0  53310-4 0  9990
2 47311  60.6852 214.0706 0039342  59.4457 301.0502 15.21724096 26017
UVSQ-SAT                
1 47438U 21006AB  21188.88144441  .00001068  00000-0  63744-4 0  9992
2 47438  97.4862 249.7389 0013522  34.2658 325.9443 15.13192071 25149
DIY-1 (ARDUIQUBE)       
1 47963U 21022AH  21189.20673245  .00002878  00000-0  19386-3 0  9991
2 47963  97.5576  91.1733 0018036 231.8346 128.1258 15.07353322 15025
